CUTE-1 (CO-55)          
1 27844U 03031E   26124.97474137  .00000276  00000+0  13844-3 0  9996
2 27844  98.6750 134.0757 0008649 316.6955  43.3544 14.24308653185521
CUBESAT XI-IV (CO-57)   
1 27848U 03031J   26125.50386014  .00000252  00000+0  12984-3 0  9994
2 27848  98.6783 134.3454 0008859 335.1058  24.9692 14.23597877185303
CUBESAT XI-V            
1 28895U 05043F   26125.39083528  .00001595  00000+0  25915-3 0  9992
2 28895  98.2938 280.1290 0013627 346.5478  13.5363 14.72520535 95459
CUTE-1.7+APD II (CO-65) 
1 32785U 08021C   26125.48513852  .00005878  00000+0  37507-3 0  9990
2 32785  97.8267 106.0363 0009351 163.4321 196.7214 15.09053983978752
CANX-2                  
1 32790U 08021H   26125.41725666  .00005374  00000+0  37957-3 0  9997
2 32790  97.8627 104.3816 0010299 180.3871 179.7348 15.05318981978378
SEEDS II (CO-66)        
1 32791U 08021J   26125.41832757  .00025273  00000+0  83610-3 0  9995
2 32791  97.7526 121.3273 0005097  98.9067 261.2751 15.31317143980740
SWISSCUBE               
1 35932U 09051B   26125.47493698  .00001128  00000+0  23278-3 0  9999
2 35932  98.4061  32.6170 0006760 357.7491   2.3678 14.62398876882914
BEESAT-1                
1 35933U 09051C   26125.46234431  .00000944  00000+0  19969-3 0  9994
2 35933  98.3988  32.3283 0005589  14.5747 345.5614 14.61650439882944
ITUPSAT1                
1 35935U 09051E   26125.21037346  .00000923  00000+0  20071-3 0  9998
2 35935  98.4075  31.3096 0007987  21.5382 338.6152 14.60375945882464
TISAT 1                 
1 36799U 10035E   26125.36859568  .00028948  00000+0  99317-3 0  9991
2 36799  98.0699  68.1851 0004082  67.1212 293.0457 15.30116231861153
AEROCUBE 4.5A           
1 38767U 12048K   26125.40981200  .00211152  00000+0  13072-2 0  9992
2 38767  64.6304 180.7074 0020996 215.9005 144.0738 15.75905327365882
STRAND-1                
1 39090U 13009E   26125.44711692  .00000308  00000+0  11814-3 0  9992
2 39090  98.3915 306.7356 0008675   7.2867 352.8445 14.37138110690920
BRITE-AUSTRIA           
1 39091U 13009F   26125.44166830  .00000193  00000+0  80095-4 0  9991
2 39091  98.3986 305.9376 0010417  14.7985 345.3504 14.36525027690911
