[
    {
        "ARG_OF_PERICENTER": 316.6955,
        "BSTAR": 0.00013843796,
        "CLASSIFICATION_TYPE": "U",
        "ECCENTRICITY": 0.00086498,
        "ELEMENT_SET_NO": 999,
        "EPHEMERIS_TYPE": 0,
        "EPOCH": "2026-05-04T23:23:37.654368",
        "INCLINATION": 98.675,
        "MEAN_ANOMALY": 43.3544,
        "MEAN_MOTION": 14.24308653,
        "MEAN_MOTION_DDOT": 0,
        "MEAN_MOTION_DOT": 2.76e-06,
        "NORAD_CAT_ID": 27844,
        "OBJECT_ID": "2003-031E",
        "OBJECT_NAME": "CUTE-1 (CO-55)",
        "RA_OF_ASC_NODE": 134.0757,
        "REV_AT_EPOCH": 18552
    },
    {
        "ARG_OF_PERICENTER": 335.1058,
        "BSTAR": 0.00012984,
        "CLASSIFICATION_TYPE": "U",
        "ECCENTRICITY": 0.0008859,
        "ELEMENT_SET_NO": 999,
        "EPHEMERIS_TYPE": 0,
        "EPOCH": "2026-05-05T12:05:33.516096",
        "INCLINATION": 98.6783,
        "MEAN_ANOMALY": 24.9692,
        "MEAN_MOTION": 14.23597877,
        "MEAN_MOTION_DDOT": 0,
        "MEAN_MOTION_DOT": 2.52e-06,
        "NORAD_CAT_ID": 27848,
        "OBJECT_ID": "2003-031J",
        "OBJECT_NAME": "CUBESAT XI-IV (CO-57)",
        "RA_OF_ASC_NODE": 134.3454,
        "REV_AT_EPOCH": 18530
    },
    {
        "ARG_OF_PERICENTER": 346.5478,
        "BSTAR": 0.00025915,
        "CLASSIFICATION_TYPE": "U",
        "ECCENTRICITY": 0.0013627,
        "ELEMENT_SET_NO": 999,
        "EPHEMERIS_TYPE": 0,
        "EPOCH": "2026-05-05T09:22:48.168192",
        "INCLINATION": 98.2938,
        "MEAN_ANOMALY": 13.5363,
        "MEAN_MOTION": 14.72520535,
        "MEAN_MOTION_DDOT": 0,
        "MEAN_MOTION_DOT": 1.595e-05,
        "NORAD_CAT_ID": 28895,
        "OBJECT_ID": "2005-043F",
        "OBJECT_NAME": "CUBESAT XI-V",
        "RA_OF_ASC_NODE": 280.129,
        "REV_AT_EPOCH": 9545
    },
    {
        "ARG_OF_PERICENTER": 163.4321,
        "BSTAR": 0.00037507,
        "CLASSIFICATION_TYPE": "U",
        "ECCENTRICITY": 0.0009351,
        "ELEMENT_SET_NO": 999,
        "EPHEMERIS_TYPE": 0,
        "EPOCH": "2026-05-05T11:38:35.968128",
        "INCLINATION": 97.8267,
        "MEAN_ANOMALY": 196.7214,
        "MEAN_MOTION": 15.09053983,
        "MEAN_MOTION_DDOT": 0,
        "MEAN_MOTION_DOT": 5.878e-05,
        "NORAD_CAT_ID": 32785,
        "OBJECT_ID": "2008-021C",
        "OBJECT_NAME": "CUTE-1.7+APD II (CO-65)",
        "RA_OF_ASC_NODE": 106.0363,
        "REV_AT_EPOCH": 97875
    },
    {
        "ARG_OF_PERICENTER": 180.3871,
        "BSTAR": 0.00037957,
        "CLASSIFICATION_TYPE": "U",
        "ECCENTRICITY": 0.0010299,
        "ELEMENT_SET_NO": 999,
        "EPHEMERIS_TYPE": 0,
        "EPOCH": "2026-05-05T10:00:50.975424",
        "INCLINATION": 97.8627,
        "MEAN_ANOMALY": 179.7348,
        "MEAN_MOTION": 15.05318981,
        "MEAN_MOTION_DDOT": 0,
        "MEAN_MOTION_DOT": 5.374e-05,
        "NORAD_CAT_ID": 32790,
        "OBJECT_ID": "2008-021H",
        "OBJECT_NAME": "CANX-2",
        "RA_OF_ASC_NODE": 104.3816,
        "REV_AT_EPOCH": 97837
    },
    {
        "ARG_OF_PERICENTER": 98.9067,
        "BSTAR": 0.0008361,
        "CLASSIFICATION_TYPE": "U",
        "ECCENTRICITY": 0.0005097,
        "ELEMENT_SET_NO": 999,
        "EPHEMERIS_TYPE": 0,
        "EPOCH": "2026-05-05T10:02:23.502048",
        "INCLINATION": 97.7526,
        "MEAN_ANOMALY": 261.2751,
        "MEAN_MOTION": 15.31317143,
        "MEAN_MOTION_DDOT": 0,
        "MEAN_MOTION_DOT": 0.00025273,
        "NORAD_CAT_ID": 32791,
        "OBJECT_ID": "2008-021J",
        "OBJECT_NAME": "SEEDS II (CO-66)",
        "RA_OF_ASC_NODE": 121.3273,
        "REV_AT_EPOCH": 98074
    },
    {
        "ARG_OF_PERICENTER": 357.7491,
        "BSTAR": 0.00023278,
        "CLASSIFICATION_TYPE": "U",
        "ECCENTRICITY": 0.000676,
        "ELEMENT_SET_NO": 999,
        "EPHEMERIS_TYPE": 0,
        "EPOCH": "2026-05-05T11:23:54.555072",
        "INCLINATION": 98.4061,
        "MEAN_ANOMALY": 2.3678,
        "MEAN_MOTION": 14.62398876,
        "MEAN_MOTION_DDOT": 0,
        "MEAN_MOTION_DOT": 1.128e-05,
        "NORAD_CAT_ID": 35932,
        "OBJECT_ID": "2009-051B",
        "OBJECT_NAME": "SWISSCUBE",
        "RA_OF_ASC_NODE": 32.617,
        "REV_AT_EPOCH": 88291
    },
    {
        "ARG_OF_PERICENTER": 14.5747,
        "BSTAR": 0.00019969,
        "CLASSIFICATION_TYPE": "U",
        "ECCENTRICITY": 0.0005589,
        "ELEMENT_SET_NO": 999,
        "EPHEMERIS_TYPE": 0,
        "EPOCH": "2026-05-05T11:05:46.548384",
        "INCLINATION": 98.3988,
        "MEAN_ANOMALY": 345.5614,
        "MEAN_MOTION": 14.61650439,
        "MEAN_MOTION_DDOT": 0,
        "MEAN_MOTION_DOT": 9.44e-06,
        "NORAD_CAT_ID": 35933,
        "OBJECT_ID": "2009-051C",
        "OBJECT_NAME": "BEESAT-1",
        "RA_OF_ASC_NODE": 32.3283,
        "REV_AT_EPOCH": 88294
    },
    {
        "ARG_OF_PERICENTER": 21.5382,
        "BSTAR": 0.00020070881,
        "CLASSIFICATION_TYPE": "U",
        "ECCENTRICITY": 0.00079874,
        "ELEMENT_SET_NO": 999,
        "EPHEMERIS_TYPE": 0,
        "EPOCH": "2026-05-05T05:02:56.266944",
        "INCLINATION": 98.4075,
        "MEAN_ANOMALY": 338.6152,
        "MEAN_MOTION": 14.60375945,
        "MEAN_MOTION_DDOT": 0,
        "MEAN_MOTION_DOT": 9.23e-06,
        "NORAD_CAT_ID": 35935,
        "OBJECT_ID": "2009-051E",
        "OBJECT_NAME": "ITUPSAT1",
        "RA_OF_ASC_NODE": 31.3096,
        "REV_AT_EPOCH": 88246
    },
    {
        "ARG_OF_PERICENTER": 67.1212,
        "BSTAR": 0.00099317,
        "CLASSIFICATION_TYPE": "U",
        "ECCENTRICITY": 0.0004082,
        "ELEMENT_SET_NO": 999,
        "EPHEMERIS_TYPE": 0,
        "EPOCH": "2026-05-05T08:50:46.666752",
        "INCLINATION": 98.0699,
        "MEAN_ANOMALY": 293.0457,
        "MEAN_MOTION": 15.30116231,
        "MEAN_MOTION_DDOT": 0,
        "MEAN_MOTION_DOT": 0.00028948,
        "NORAD_CAT_ID": 36799,
        "OBJECT_ID": "2010-035E",
        "OBJECT_NAME": "TISAT 1",
        "RA_OF_ASC_NODE": 68.1851,
        "REV_AT_EPOCH": 86115
    },
    {
        "ARG_OF_PERICENTER": 215.9005,
        "BSTAR": 0.0013072,
        "CLASSIFICATION_TYPE": "U",
        "ECCENTRICITY": 0.0020996,
        "ELEMENT_SET_NO": 999,
        "EPHEMERIS_TYPE": 0,
        "EPOCH": "2026-05-05T09:50:07.756800",
        "INCLINATION": 64.6304,
        "MEAN_ANOMALY": 144.0738,
        "MEAN_MOTION": 15.75905327,
        "MEAN_MOTION_DDOT": 0,
        "MEAN_MOTION_DOT": 0.00211152,
        "NORAD_CAT_ID": 38767,
        "OBJECT_ID": "2012-048K",
        "OBJECT_NAME": "AEROCUBE 4.5A",
        "RA_OF_ASC_NODE": 180.7074,
        "REV_AT_EPOCH": 36588
    },
    {
        "ARG_OF_PERICENTER": 7.2867,
        "BSTAR": 0.00011814,
        "CLASSIFICATION_TYPE": "U",
        "ECCENTRICITY": 0.0008675,
        "ELEMENT_SET_NO": 999,
        "EPHEMERIS_TYPE": 0,
        "EPOCH": "2026-05-05T10:43:50.901888",
        "INCLINATION": 98.3915,
        "MEAN_ANOMALY": 352.8445,
        "MEAN_MOTION": 14.3713811,
        "MEAN_MOTION_DDOT": 0,
        "MEAN_MOTION_DOT": 3.08e-06,
        "NORAD_CAT_ID": 39090,
        "OBJECT_ID": "2013-009E",
        "OBJECT_NAME": "STRAND-1",
        "RA_OF_ASC_NODE": 306.7356,
        "REV_AT_EPOCH": 69092
    },
    {
        "ARG_OF_PERICENTER": 14.7985,
        "BSTAR": 8.0095e-05,
        "CLASSIFICATION_TYPE": "U",
        "ECCENTRICITY": 0.0010417,
        "ELEMENT_SET_NO": 999,
        "EPHEMERIS_TYPE": 0,
        "EPOCH": "2026-05-05T10:36:00.141120",
        "INCLINATION": 98.3986,
        "MEAN_ANOMALY": 345.3504,
        "MEAN_MOTION": 14.36525027,
        "MEAN_MOTION_DDOT": 0,
        "MEAN_MOTION_DOT": 1.93e-06,
        "NORAD_CAT_ID": 39091,
        "OBJECT_ID": "2013-009F",
        "OBJECT_NAME": "BRITE-AUSTRIA",
        "RA_OF_ASC_NODE": 305.9376,
        "REV_AT_EPOCH": 69091
    }
]